STARLINK-37068          
1 68085U 26042S   26075.25003472 -.01583164  00000+0 -78504-2 0  9999
2 68085  53.1594 161.7702 0000917  85.6523 217.6850 15.84125466  3101
STARLINK-37067          
1 68086U 26042T   26075.25003472 -.01594338  00000+0 -78897-2 0  9990
2 68086  53.1593 161.7619 0000923  90.6427 216.7868 15.84188814  3109
STARLINK-37062          
1 68087U 26042U   26075.25003472 -.01594655  00000+0 -78533-2 0  9990
2 68087  53.1595 161.7537 0001103  94.2473 217.1157 15.84286994  3107
STARLINK-37059          
1 68088U 26042V   26075.25003472 -.01597304  00000+0 -78415-2 0  9994
2 68088  53.1594 161.7454 0001097  89.1023 226.2987 15.84357336  3102
STARLINK-37004          
1 68089U 26042W   26075.25003472 -.01593580  00000+0 -77827-2 0  9993
2 68089  53.1596 161.7379 0001018  87.4223 231.8765 15.84458432  3102
STARLINK-36320          
1 68090U 26042X   26075.75002314 -.01561915  00000+0 -82365-2 0  9994
2 68090  53.1594 159.2065 0000924  72.4922 227.1554 15.82802159  3179
STARLINK-36324          
1 68091U 26042Y   26075.75002314 -.01580708  00000+0 -83770-2 0  9997
2 68091  53.1594 159.2149 0001124  71.9553 223.5700 15.82731772  3175
STARLINK-36896          
1 68092U 26042Z   26075.75002314 -.01534971  00000+0 -80410-2 0  9997
2 68092  53.1593 159.1980 0000743  69.4998 234.2127 15.82892113  3188
STARLINK-36251          
1 68093U 26042AA  26075.75002314 -.01602199  00000+0 -83611-2 0  9992
2 68093  53.1590 159.1811 0000725  58.6697 253.1999 15.83100768  3170
STARLINK-36787          
1 68094U 26042AB  26075.75002314 -.01554089  00000+0 -81365-2 0  9991
2 68094  53.1591 159.1622 0000946  69.2015 251.5395 15.82938047  3179
STARLINK-36790          
1 68095U 26042AC  26075.75002314 -.01551677  00000+0 -80960-2 0  9992
2 68095  53.1592 159.1892 0000960  79.0232 228.7338 15.83005364  3177
STARLINK-36328          
1 68096U 26042AD  26075.75002314 -.01482952  00000+0 -77121-2 0  9997
2 68096  53.1590 159.1535 0001020  66.8177 258.1291 15.82943998  3178
