CCSDS_OMM_VERS = 2.0
CREATION_DATE  = 
ORIGINATOR     = 

OBJECT_NAME    = STARLINK-37068
OBJECT_ID      = 2026-042S
CENTER_NAME    = EARTH
REF_FRAME      = TEME
TIME_SYSTEM    = UTC
MEAN_ELEMENT_THEORY = SGP/SGP4

EPOCH          = 2026-03-16T06:00:02.999808
MEAN_MOTION    = 15.84125466
ECCENTRICITY   = .00009177
INCLINATION    = 53.1594
RA_OF_ASC_NODE = 161.7702
ARG_OF_PERICENTER = 85.6523
MEAN_ANOMALY   = 217.6850

EPHEMERIS_TYPE = 0
CLASSIFICATION_TYPE = U
NORAD_CAT_ID   = 68085
ELEMENT_SET_NO = 999
REV_AT_EPOCH   = 310
BSTAR          = -.78504406E-2
MEAN_MOTION_DOT = -.1583164E-1
MEAN_MOTION_DDOT = 0

CCSDS_OMM_VERS = 2.0
CREATION_DATE  = 
ORIGINATOR     = 

OBJECT_NAME    = STARLINK-37067
OBJECT_ID      = 2026-042T
CENTER_NAME    = EARTH
REF_FRAME      = TEME
TIME_SYSTEM    = UTC
MEAN_ELEMENT_THEORY = SGP/SGP4

EPOCH          = 2026-03-16T06:00:02.999808
MEAN_MOTION    = 15.84188814
ECCENTRICITY   = .00009236
INCLINATION    = 53.1593
RA_OF_ASC_NODE = 161.7619
ARG_OF_PERICENTER = 90.6427
MEAN_ANOMALY   = 216.7868

EPHEMERIS_TYPE = 0
CLASSIFICATION_TYPE = U
NORAD_CAT_ID   = 68086
ELEMENT_SET_NO = 999
REV_AT_EPOCH   = 310
BSTAR          = -.78896676E-2
MEAN_MOTION_DOT = -.1594338E-1
MEAN_MOTION_DDOT = 0

CCSDS_OMM_VERS = 2.0
CREATION_DATE  = 
ORIGINATOR     = 

OBJECT_NAME    = STARLINK-37062
OBJECT_ID      = 2026-042U
CENTER_NAME    = EARTH
REF_FRAME      = TEME
TIME_SYSTEM    = UTC
MEAN_ELEMENT_THEORY = SGP/SGP4

EPOCH          = 2026-03-16T06:00:02.999808
MEAN_MOTION    = 15.84286994
ECCENTRICITY   = .00011035
INCLINATION    = 53.1595
RA_OF_ASC_NODE = 161.7537
ARG_OF_PERICENTER = 94.2473
MEAN_ANOMALY   = 217.1157

EPHEMERIS_TYPE = 0
CLASSIFICATION_TYPE = U
NORAD_CAT_ID   = 68087
ELEMENT_SET_NO = 999
REV_AT_EPOCH   = 310
BSTAR          = -.78532887E-2
MEAN_MOTION_DOT = -.1594655E-1
MEAN_MOTION_DDOT = 0

CCSDS_OMM_VERS = 2.0
CREATION_DATE  = 
ORIGINATOR     = 

OBJECT_NAME    = STARLINK-37059
OBJECT_ID      = 2026-042V
CENTER_NAME    = EARTH
REF_FRAME      = TEME
TIME_SYSTEM    = UTC
MEAN_ELEMENT_THEORY = SGP/SGP4

EPOCH          = 2026-03-16T06:00:02.999808
MEAN_MOTION    = 15.84357336
ECCENTRICITY   = .00010971
INCLINATION    = 53.1594
RA_OF_ASC_NODE = 161.7454
ARG_OF_PERICENTER = 89.1023
MEAN_ANOMALY   = 226.2987

EPHEMERIS_TYPE = 0
CLASSIFICATION_TYPE = U
NORAD_CAT_ID   = 68088
ELEMENT_SET_NO = 999
REV_AT_EPOCH   = 310
BSTAR          = -.78415189E-2
MEAN_MOTION_DOT = -.1597304E-1
MEAN_MOTION_DDOT = 0

CCSDS_OMM_VERS = 2.0
CREATION_DATE  = 
ORIGINATOR     = 

OBJECT_NAME    = STARLINK-37004
OBJECT_ID      = 2026-042W
CENTER_NAME    = EARTH
REF_FRAME      = TEME
TIME_SYSTEM    = UTC
MEAN_ELEMENT_THEORY = SGP/SGP4

EPOCH          = 2026-03-16T06:00:02.999808
MEAN_MOTION    = 15.84458432
ECCENTRICITY   = .00010184
INCLINATION    = 53.1596
RA_OF_ASC_NODE = 161.7379
ARG_OF_PERICENTER = 87.4223
MEAN_ANOMALY   = 231.8765

EPHEMERIS_TYPE = 0
CLASSIFICATION_TYPE = U
NORAD_CAT_ID   = 68089
ELEMENT_SET_NO = 999
REV_AT_EPOCH   = 310
BSTAR          = -.7782743E-2
MEAN_MOTION_DOT = -.159358E-1
MEAN_MOTION_DDOT = 0

CCSDS_OMM_VERS = 2.0
CREATION_DATE  = 
ORIGINATOR     = 

OBJECT_NAME    = STARLINK-36320
OBJECT_ID      = 2026-042X
CENTER_NAME    = EARTH
REF_FRAME      = TEME
TIME_SYSTEM    = UTC
MEAN_ELEMENT_THEORY = SGP/SGP4

EPOCH          = 2026-03-16T18:00:01.999296
MEAN_MOTION    = 15.82802159
ECCENTRICITY   = .0000924
INCLINATION    = 53.1594
RA_OF_ASC_NODE = 159.2065
ARG_OF_PERICENTER = 72.4922
MEAN_ANOMALY   = 227.1554

EPHEMERIS_TYPE = 0
CLASSIFICATION_TYPE = U
NORAD_CAT_ID   = 68090
ELEMENT_SET_NO = 999
REV_AT_EPOCH   = 317
BSTAR          = -.82365E-2
MEAN_MOTION_DOT = -.1561915E-1
MEAN_MOTION_DDOT = 0

CCSDS_OMM_VERS = 2.0
CREATION_DATE  = 
ORIGINATOR     = 

OBJECT_NAME    = STARLINK-36324
OBJECT_ID      = 2026-042Y
CENTER_NAME    = EARTH
REF_FRAME      = TEME
TIME_SYSTEM    = UTC
MEAN_ELEMENT_THEORY = SGP/SGP4

EPOCH          = 2026-03-16T18:00:01.999296
MEAN_MOTION    = 15.82731772
ECCENTRICITY   = .0001124
INCLINATION    = 53.1594
RA_OF_ASC_NODE = 159.2149
ARG_OF_PERICENTER = 71.9553
MEAN_ANOMALY   = 223.5700

EPHEMERIS_TYPE = 0
CLASSIFICATION_TYPE = U
NORAD_CAT_ID   = 68091
ELEMENT_SET_NO = 999
REV_AT_EPOCH   = 317
BSTAR          = -.8377E-2
MEAN_MOTION_DOT = -.1580708E-1
MEAN_MOTION_DDOT = 0

CCSDS_OMM_VERS = 2.0
CREATION_DATE  = 
ORIGINATOR     = 

OBJECT_NAME    = STARLINK-36896
OBJECT_ID      = 2026-042Z
CENTER_NAME    = EARTH
REF_FRAME      = TEME
TIME_SYSTEM    = UTC
MEAN_ELEMENT_THEORY = SGP/SGP4

EPOCH          = 2026-03-16T18:00:01.999296
MEAN_MOTION    = 15.82892113
ECCENTRICITY   = .0000743
INCLINATION    = 53.1593
RA_OF_ASC_NODE = 159.1980
ARG_OF_PERICENTER = 69.4998
MEAN_ANOMALY   = 234.2127

EPHEMERIS_TYPE = 0
CLASSIFICATION_TYPE = U
NORAD_CAT_ID   = 68092
ELEMENT_SET_NO = 999
REV_AT_EPOCH   = 318
BSTAR          = -.8041E-2
MEAN_MOTION_DOT = -.1534971E-1
MEAN_MOTION_DDOT = 0

CCSDS_OMM_VERS = 2.0
CREATION_DATE  = 
ORIGINATOR     = 

OBJECT_NAME    = STARLINK-36251
OBJECT_ID      = 2026-042AA
CENTER_NAME    = EARTH
REF_FRAME      = TEME
TIME_SYSTEM    = UTC
MEAN_ELEMENT_THEORY = SGP/SGP4

EPOCH          = 2026-03-16T18:00:01.999296
MEAN_MOTION    = 15.83100768
ECCENTRICITY   = .0000725
INCLINATION    = 53.1590
RA_OF_ASC_NODE = 159.1811
ARG_OF_PERICENTER = 58.6697
MEAN_ANOMALY   = 253.1999

EPHEMERIS_TYPE = 0
CLASSIFICATION_TYPE = U
NORAD_CAT_ID   = 68093
ELEMENT_SET_NO = 999
REV_AT_EPOCH   = 317
BSTAR          = -.83611E-2
MEAN_MOTION_DOT = -.1602199E-1
MEAN_MOTION_DDOT = 0

CCSDS_OMM_VERS = 2.0
CREATION_DATE  = 
ORIGINATOR     = 

OBJECT_NAME    = STARLINK-36787
OBJECT_ID      = 2026-042AB
CENTER_NAME    = EARTH
REF_FRAME      = TEME
TIME_SYSTEM    = UTC
MEAN_ELEMENT_THEORY = SGP/SGP4

EPOCH          = 2026-03-16T18:00:01.999296
MEAN_MOTION    = 15.82938047
ECCENTRICITY   = .0000946
INCLINATION    = 53.1591
RA_OF_ASC_NODE = 159.1622
ARG_OF_PERICENTER = 69.2015
MEAN_ANOMALY   = 251.5395

EPHEMERIS_TYPE = 0
CLASSIFICATION_TYPE = U
NORAD_CAT_ID   = 68094
ELEMENT_SET_NO = 999
REV_AT_EPOCH   = 317
BSTAR          = -.81365E-2
MEAN_MOTION_DOT = -.1554089E-1
MEAN_MOTION_DDOT = 0

CCSDS_OMM_VERS = 2.0
CREATION_DATE  = 
ORIGINATOR     = 

OBJECT_NAME    = STARLINK-36790
OBJECT_ID      = 2026-042AC
CENTER_NAME    = EARTH
REF_FRAME      = TEME
TIME_SYSTEM    = UTC
MEAN_ELEMENT_THEORY = SGP/SGP4

EPOCH          = 2026-03-16T18:00:01.999296
MEAN_MOTION    = 15.83005364
ECCENTRICITY   = .000096
INCLINATION    = 53.1592
RA_OF_ASC_NODE = 159.1892
ARG_OF_PERICENTER = 79.0232
MEAN_ANOMALY   = 228.7338

EPHEMERIS_TYPE = 0
CLASSIFICATION_TYPE = U
NORAD_CAT_ID   = 68095
ELEMENT_SET_NO = 999
REV_AT_EPOCH   = 317
BSTAR          = -.8096E-2
MEAN_MOTION_DOT = -.1551677E-1
MEAN_MOTION_DDOT = 0

CCSDS_OMM_VERS = 2.0
CREATION_DATE  = 
ORIGINATOR     = 

OBJECT_NAME    = STARLINK-36328
OBJECT_ID      = 2026-042AD
CENTER_NAME    = EARTH
REF_FRAME      = TEME
TIME_SYSTEM    = UTC
MEAN_ELEMENT_THEORY = SGP/SGP4

EPOCH          = 2026-03-16T18:00:01.999296
MEAN_MOTION    = 15.82943998
ECCENTRICITY   = .000102
INCLINATION    = 53.1590
RA_OF_ASC_NODE = 159.1535
ARG_OF_PERICENTER = 66.8177
MEAN_ANOMALY   = 258.1291

EPHEMERIS_TYPE = 0
CLASSIFICATION_TYPE = U
NORAD_CAT_ID   = 68096
ELEMENT_SET_NO = 999
REV_AT_EPOCH   = 317
BSTAR          = -.77121E-2
MEAN_MOTION_DOT = -.1482952E-1
MEAN_MOTION_DDOT = 0

